FENGYUN 1C DEB          
1 30053U 99025PE  24366.39319539  .00009835  00000+0  49097-2 0  9994
2 30053  98.5731 198.5071 0345469 217.1932 265.5487 13.90315004901679
FENGYUN 1C DEB          
1 30054U 99025PF  24366.07299900  .00001602  00000+0  14448-2 0  9995
2 30054  99.4141  40.4132 0277837 184.9758 204.9417 13.69336688896038
FENGYUN 1C DEB          
1 30056U 99025PH  24366.82892502  .00005594  00000+0  44666-2 0  9996
2 30056  98.3517 230.4132 0305676  62.8153 300.3807 13.71662608892297
FENGYUN 1C DEB          
1 30057U 99025PJ  24366.55826807  .00002957  00000+0  32592-2 0  9997
2 30057  98.8947 102.3467 0292365 319.0761  50.3176 13.55890584885426
FENGYUN 1C DEB          
1 30058U 99025PK  24366.71724635  .00002163  00000+0  26499-2 0  9990
2 30058  99.6540  16.2991 0317189 291.3445 117.2971 13.47597046881861
FENGYUN 1C DEB          
1 30059U 99025PL  24366.86100927  .00000560  00000+0  72638-3 0  9995
2 30059  98.8375  37.2454 0328603 100.0030  70.2507 13.45250672881463
FENGYUN 1C DEB          
1 30060U 99025PM  24366.47938301  .00002857  00000+0  35770-2 0  9995
2 30060  99.3324 252.3289 0347604 214.2215 322.6361 13.42528843875949
FENGYUN 1C DEB          
1 30061U 99025PN  24366.07048976  .00005343  00000+0  61143-2 0  9998
2 30061 101.8897  46.1930 0373830 316.4666  68.6399 13.44197534874376
FENGYUN 1C DEB          
1 30062U 99025PP  24366.83744100  .00002057  00000+0  12570-2 0  9994
2 30062  98.7922  19.8426 0048569 300.9060 233.2801 14.06460754920445
FENGYUN 1C DEB          
1 30063U 99025PQ  24366.48221022  .00000488  00000+0  26977-3 0  9992
2 30063  98.4866 355.1927 0033255  52.9542  98.7193 14.15432116927667
FENGYUN 1C DEB          
1 30064U 99025PR  24366.82299931  .00001073  00000+0  57592-3 0  9993
2 30064  98.6773  22.1111 0066328  20.7038 152.6261 14.13914471926160
FENGYUN 1C DEB          
1 30065U 99025PS  24365.69655894  .00000568  00000+0  48899-3 0  9990
2 30065  98.6480 357.8581 0130345 258.9656  99.6819 13.86727433908615
FENGYUN 1C DEB          
1 30066U 99025PT  24366.76317830  .00000854  00000+0  40271-3 0  9999
2 30066  98.6120   0.4812 0118321 179.1876 354.8733 14.18729184929304
FENGYUN 1C DEB          
1 30067U 99025PU  24366.71566838  .00005465  00000+0  14481-2 0  9995
2 30067  98.8103 235.8799 0154187 331.3350  68.2444 14.42313978942087
FENGYUN 1C DEB          
1 30068U 99025PV  24366.95318627  .00001186  00000+0  57069-3 0  9999
2 30068  98.7104 357.9437 0190035 251.7125 106.3289 14.11666253924646
FENGYUN 1C DEB          
1 30069U 99025PW  24366.71240875  .00001695  00000+0  10725-2 0  9995
2 30069  98.7682 353.4677 0048633 303.8023 231.2131 14.04787819919874
FENGYUN 1C DEB          
1 30070U 99025PX  24366.46733221  .00015764  00000+0  56940-2 0  9992
2 30070  98.3152  87.0676 0343702 230.5331 139.8119 14.05527166910065
FENGYUN 1C DEB          
1 30071U 99025PY  24366.69422520  .00022410  00000+0  65276-2 0  9993
2 30071  98.6646  91.5507 0045033  74.1691  82.3398 14.43561688932184
FENGYUN 1C DEB          
1 30072U 99025PZ  24366.30206498  .00027120  00000+0  10425-1 0  9994
2 30072  99.0754 131.6015 0069733 204.4014 155.3859 14.28983266922062
FENGYUN 1C DEB          
1 30073U 99025QA  24365.38634101  .00007893  00000+0  40141-2 0  9992
2 30073  99.3888 312.8002 0054133 173.5286 310.3814 14.15357025920053
FENGYUN 1C DEB          
1 30074U 99025QB  24363.92045271  .00004857  00000+0  26389-2 0  9990
2 30074  99.1553  57.6185 0098313  50.7621 310.2224 14.10335208917407
FENGYUN 1C DEB          
1 30075U 99025QC  24366.94091730  .00000481  00000+0  39625-3 0  9994
2 30075  99.4100  46.8012 0091302  30.2520  91.1151 13.92362585912529
FENGYUN 1C DEB          
1 30076U 99025QD  24366.47570483  .00001044  00000+0  10030-2 0  9994
2 30076  99.2115 357.8840 0174935 287.3185 228.3680 13.75967477901312
FENGYUN 1C DEB          
1 30077U 99025QE  24366.54893205  .00000049  00000+0  54835-4 0  9990
2 30077  98.7813  26.5615 0021861 156.4961 355.3680 14.07009186922447
FENGYUN 1C DEB          
1 30078U 99025QF  24366.14735090  .00013424  00000+0  62743-2 0  9990
2 30078  98.8564  74.4083 0058924 194.8961 195.4472 14.19482384921897
FENGYUN 1C DEB          
1 30079U 99025QG  24366.38054881  .00001497  00000+0  10047-2 0  9996
2 30079  99.1016  58.4472 0087989 174.5327 197.6384 14.00483988916893
FENGYUN 1C DEB          
1 30080U 99025QH  24366.96278698  .00001898  00000+0  10063-2 0  9999
2 30080  98.6640 353.1164 0132953 322.7869  55.1474 14.10389098923631
FENGYUN 1C DEB          
1 30081U 99025QJ  24366.84707356  .00001009  00000+0  72522-3 0  9998
2 30081  98.9119   6.8835 0076309 213.2284 268.0327 13.97812870915210
FENGYUN 1C DEB          
1 30082U 99025QK  24366.41764168  .00031921  00000+0  24522-2 0  9998
2 30082  98.8486 238.4752 0101407 230.2972 303.7961 14.97629093960810
FENGYUN 1C DEB          
1 30086U 99025QP  24366.37553921  .00001309  00000+0  85233-3 0  9994
2 30086  98.9509  40.2743 0061020  20.6418 351.4794 14.03300381918373
