OBJECT_NAME,OBJECT_ID,EPOCH,MEAN_MOTION,ECCENTRICITY,INCLINATION,RA_OF_ASC_NODE,ARG_OF_PERICENTER,MEAN_ANOMALY,EPHEMERIS_TYPE,CLASSIFICATION_TYPE,NORAD_CAT_ID,ELEMENT_SET_NO,REV_AT_EPOCH,BSTAR,MEAN_MOTION_DOT,MEAN_MOTION_DDOT
FENGYUN 1C DEB,1999-025PE,2024-12-31T09:26:12.081696,13.90315004,.0345469,98.5731,198.5071,217.1932,265.5487,0,U,30053,999,90167,.49097E-2,.9835E-4,0
FENGYUN 1C DEB,1999-025PF,2024-12-31T01:45:07.113600,13.69336688,.0277837,99.4141,40.4132,184.9758,204.9417,0,U,30054,999,89603,.14448E-2,.1602E-4,0
FENGYUN 1C DEB,1999-025PH,2024-12-31T19:53:39.121728,13.71662608,.0305676,98.3517,230.4132,62.8153,300.3807,0,U,30056,999,89229,.44666E-2,.5594E-4,0
FENGYUN 1C DEB,1999-025PJ,2024-12-31T13:23:54.361248,13.55890584,.0292365,98.8947,102.3467,319.0761,50.3176,0,U,30057,999,88542,.32592E-2,.2957E-4,0
FENGYUN 1C DEB,1999-025PK,2024-12-31T17:12:50.084640,13.47597046,.0317189,99.6540,16.2991,291.3445,117.2971,0,U,30058,999,88186,.26499E-2,.2163E-4,0
FENGYUN 1C DEB,1999-025PL,2024-12-31T20:39:51.200928,13.45250672,.0328603,98.8375,37.2454,100.0030,70.2507,0,U,30059,999,88146,.72638E-3,.56E-5,0
FENGYUN 1C DEB,1999-025PM,2024-12-31T11:30:18.692064,13.42528843,.0347604,99.3324,252.3289,214.2215,322.6361,0,U,30060,999,87594,.3577E-2,.2857E-4,0
FENGYUN 1C DEB,1999-025PN,2024-12-31T01:41:30.315264,13.44197534,.037383,101.8897,46.1930,316.4666,68.6399,0,U,30061,999,87437,.61143E-2,.5343E-4,0
FENGYUN 1C DEB,1999-025PP,2024-12-31T20:05:54.902400,14.06460754,.0048569,98.7922,19.8426,300.9060,233.2801,0,U,30062,999,92044,.1257E-2,.2057E-4,0
FENGYUN 1C DEB,1999-025PQ,2024-12-31T11:34:22.963008,14.15432116,.0033255,98.4866,355.1927,52.9542,98.7193,0,U,30063,999,92766,.26977E-3,.488E-5,0
FENGYUN 1C DEB,1999-025PR,2024-12-31T19:45:07.140384,14.13914471,.0066328,98.6773,22.1111,20.7038,152.6261,0,U,30064,999,92616,.57592E-3,.1073E-4,0
FENGYUN 1C DEB,1999-025PS,2024-12-30T16:43:02.692416,13.86727433,.0130345,98.6480,357.8581,258.9656,99.6819,0,U,30065,999,90861,.48899E-3,.568E-5,0
FENGYUN 1C DEB,1999-025PT,2024-12-31T18:18:58.605120,14.18729184,.0118321,98.6120,0.4812,179.1876,354.8733,0,U,30066,999,92930,.40271E-3,.854E-5,0
FENGYUN 1C DEB,1999-025PU,2024-12-31T17:10:33.748032,14.42313978,.0154187,98.8103,235.8799,331.3350,68.2444,0,U,30067,999,94208,.14481E-2,.5465E-4,0
FENGYUN 1C DEB,1999-025PV,2024-12-31T22:52:35.293728,14.11666253,.0190035,98.7104,357.9437,251.7125,106.3289,0,U,30068,999,92464,.57069E-3,.1186E-4,0
FENGYUN 1C DEB,1999-025PW,2024-12-31T17:05:52.116000,14.04787819,.0048633,98.7682,353.4677,303.8023,231.2131,0,U,30069,999,91987,.10725E-2,.1695E-4,0
FENGYUN 1C DEB,1999-025PX,2024-12-31T11:12:57.502944,14.05527166,.0343702,98.3152,87.0676,230.5331,139.8119,0,U,30070,999,91006,.5694E-2,.15764E-3,0
FENGYUN 1C DEB,1999-025PY,2024-12-31T16:39:41.057280,14.43561688,.0045033,98.6646,91.5507,74.1691,82.3398,0,U,30071,999,93218,.65276E-2,.2241E-3,0
FENGYUN 1C DEB,1999-025PZ,2024-12-31T07:14:58.414272,14.28983266,.0069733,99.0754,131.6015,204.4014,155.3859,0,U,30072,999,92206,.10425E-1,.2712E-3,0
FENGYUN 1C DEB,1999-025QA,2024-12-30T09:16:19.863264,14.15357025,.0054133,99.3888,312.8002,173.5286,310.3814,0,U,30073,999,92005,.40141E-2,.7893E-4,0
FENGYUN 1C DEB,1999-025QB,2024-12-28T22:05:27.114144,14.10335208,.0098313,99.1553,57.6185,50.7621,310.2224,0,U,30074,999,91740,.26389E-2,.4857E-4,0
FENGYUN 1C DEB,1999-025QC,2024-12-31T22:34:55.254720,13.92362585,.0091302,99.4100,46.8012,30.2520,91.1151,0,U,30075,999,91252,.39625E-3,.481E-5,0
FENGYUN 1C DEB,1999-025QD,2024-12-31T11:25:00.897312,13.75967477,.0174935,99.2115,357.8840,287.3185,228.3680,0,U,30076,999,90131,.1003E-2,.1044E-4,0
FENGYUN 1C DEB,1999-025QE,2024-12-31T13:10:27.729120,14.07009186,.0021861,98.7813,26.5615,156.4961,355.3680,0,U,30077,999,92244,.54835E-4,.49E-6,0
FENGYUN 1C DEB,1999-025QF,2024-12-31T03:32:11.117760,14.19482384,.0058924,98.8564,74.4083,194.8961,195.4472,0,U,30078,999,92189,.62743E-2,.13424E-3,0
FENGYUN 1C DEB,1999-025QG,2024-12-31T09:07:59.417184,14.00483988,.0087989,99.1016,58.4472,174.5327,197.6384,0,U,30079,999,91689,.10047E-2,.1497E-4,0
FENGYUN 1C DEB,1999-025QH,2024-12-31T23:06:24.795072,14.10389098,.0132953,98.6640,353.1164,322.7869,55.1474,0,U,30080,999,92363,.10063E-2,.1898E-4,0
FENGYUN 1C DEB,1999-025QJ,2024-12-31T20:19:47.155584,13.97812870,.0076309,98.9119,6.8835,213.2284,268.0327,0,U,30081,999,91521,.72522E-3,.1009E-4,0
FENGYUN 1C DEB,1999-025QK,2024-12-31T10:01:24.241152,14.97629093,.0101407,98.8486,238.4752,230.2972,303.7961,0,U,30082,999,96081,.24522E-2,.31921E-3,0
FENGYUN 1C DEB,1999-025QP,2024-12-31T09:00:46.587744,14.03300381,.006102,98.9509,40.2743,20.6418,351.4794,0,U,30086,999,91837,.85233E-3,.1309E-4,0
